{
  "type": "FeatureCollection",
  "features": [
    {
      "type": "Feature",
      "properties": {
        "norad_id": 34907,
        "name": "COSMOS 2251 DEB",
        "group": "cosmos-2251-debris",
        "lat": 29.399625041921947,
        "lon": 47.961356194702134,
        "alt_km": 417.30991273181917,
        "timestamp": "2025-12-17T04:57:44.756126+00:00",
        "meta_object_name": "COSMOS 2251 DEB",
        "meta_object_id": "1993-036ADC",
        "meta_epoch": "2025-12-15T03:08:27.494592",
        "meta_mean_motion": 15.45801338,
        "meta_eccentricity": 0.00202571,
        "meta_inclination": 73.97,
        "meta_ra_of_asc_node": 43.1829,
        "meta_arg_of_pericenter": 337.9656,
        "meta_mean_anomaly": 22.0681,
        "meta_ephemeris_type": 0,
        "meta_classification_type": "U",
        "meta_norad_cat_id": 34907,
        "meta_element_set_no": 999,
        "meta_rev_at_epoch": 88010,
        "meta_bstar": 0.0046562373,
        "meta_mean_motion_dot": 0.00234249,
        "meta_mean_motion_ddot": 0,
        "tle_line1": "1 34907U 93036ADC 25349.13087378  .00234249  00000+0  46562-2 0  9992",
        "tle_line2": "2 34907  73.9700  43.1829 0020257 337.9656  22.0681 15.45801338880107"
      },
      "geometry": {
        "type": "Point",
        "coordinates": [
          47.961356194702134,
          29.399625041921947
        ]
      }
    },
    {
      "type": "Feature",
      "properties": {
        "norad_id": 34908,
        "name": "COSMOS 2251 DEB",
        "group": "cosmos-2251-debris",
        "lat": 36.59585067714979,
        "lon": -176.80547955172426,
        "alt_km": 774.508768513956,
        "timestamp": "2025-12-17T04:57:44.756136+00:00",
        "meta_object_name": "COSMOS 2251 DEB",
        "meta_object_id": "1993-036ADD",
        "meta_epoch": "2025-12-16T12:18:00.183168",
        "meta_mean_motion": 14.3740915,
        "meta_eccentricity": 0.00402094,
        "meta_inclination": 74.0582,
        "meta_ra_of_asc_node": 16.7237,
        "meta_arg_of_pericenter": 31.6478,
        "meta_mean_anomaly": 118.3664,
        "meta_ephemeris_type": 0,
        "meta_classification_type": "U",
        "meta_norad_cat_id": 34908,
        "meta_element_set_no": 999,
        "meta_rev_at_epoch": 87333,
        "meta_bstar": 0.00046056248,
        "meta_mean_motion_dot": 1.364e-05,
        "meta_mean_motion_ddot": 0,
        "tle_line1": "1 34908U 93036ADD 25350.51250212  .00001364  00000+0  46056-3 0  9995",
        "tle_line2": "2 34908  74.0582  16.7237 0040209  31.6478 118.3664 14.37409150873339"
      },
      "geometry": {
        "type": "Point",
        "coordinates": [
          -176.80547955172426,
          36.59585067714979
        ]
      }
    },
    {
      "type": "Feature",
      "properties": {
        "norad_id": 34909,
        "name": "COSMOS 2251 DEB",
        "group": "cosmos-2251-debris",
        "lat": -23.861765992832538,
        "lon": -104.92564377798418,
        "alt_km": 582.1681608201261,
        "timestamp": "2025-12-17T04:57:44.756145+00:00",
        "meta_object_name": "COSMOS 2251 DEB",
        "meta_object_id": "1993-036ADE",
        "meta_epoch": "2025-12-16T23:09:48.199680",
        "meta_mean_motion": 14.77871618,
        "meta_eccentricity": 0.00842379,
        "meta_inclination": 74.015,
        "meta_ra_of_asc_node": 68.2645,
        "meta_arg_of_pericenter": 203.1131,
        "meta_mean_anomaly": 156.6247,
        "meta_ephemeris_type": 0,
        "meta_classification_type": "U",
        "meta_norad_cat_id": 34909,
        "meta_element_set_no": 999,
        "meta_rev_at_epoch": 66914,
        "meta_bstar": 0.0004301691,
        "meta_mean_motion_dot": 3.247e-05,
        "meta_mean_motion_ddot": 0,
        "tle_line1": "1 34909U 93036ADE 25350.96514120  .00003247  00000+0  43017-3 0  9992",
        "tle_line2": "2 34909  74.0150  68.2645 0084237 203.1131 156.6247 14.77871618669147"
      },
      "geometry": {
        "type": "Point",
        "coordinates": [
          -104.92564377798418,
          -23.861765992832538
        ]
      }
    },
    {
      "type": "Feature",
      "properties": {
        "norad_id": 34910,
        "name": "COSMOS 2251 DEB",
        "group": "cosmos-2251-debris",
        "lat": 61.96140035845867,
        "lon": 127.27276791154152,
        "alt_km": 1396.1147730253879,
        "timestamp": "2025-12-17T04:57:44.756154+00:00",
        "meta_object_name": "COSMOS 2251 DEB",
        "meta_object_id": "1993-036ADF",
        "meta_epoch": "2025-12-16T00:48:30.580128",
        "meta_mean_motion": 13.37690746,
        "meta_eccentricity": 0.04679747,
        "meta_inclination": 73.876,
        "meta_ra_of_asc_node": 96.2259,
        "meta_arg_of_pericenter": 214.6056,
        "meta_mean_anomaly": 328.1497,
        "meta_ephemeris_type": 0,
        "meta_classification_type": "U",
        "meta_norad_cat_id": 34910,
        "meta_element_set_no": 999,
        "meta_rev_at_epoch": 81568,
        "meta_bstar": 0.0011529423,
        "meta_mean_motion_dot": 1.118e-05,
        "meta_mean_motion_ddot": 0,
        "tle_line1": "1 34910U 93036ADF 25350.03368727  .00001118  00000+0  11529-2 0  9999",
        "tle_line2": "2 34910  73.8760  96.2259 0467974 214.6056 328.1497 13.37690746815682"
      },
      "geometry": {
        "type": "Point",
        "coordinates": [
          127.27276791154152,
          61.96140035845867
        ]
      }
    },
    {
      "type": "Feature",
      "properties": {
        "norad_id": 34911,
        "name": "COSMOS 2251 DEB",
        "group": "cosmos-2251-debris",
        "lat": 3.4334134535295058,
        "lon": -122.78491754125186,
        "alt_km": 638.1801434959971,
        "timestamp": "2025-12-17T04:57:44.756164+00:00",
        "meta_object_name": "COSMOS 2251 DEB",
        "meta_object_id": "1993-036ADG",
        "meta_epoch": "2025-12-16T17:41:35.979072",
        "meta_mean_motion": 14.5937892,
        "meta_eccentricity": 0.00837784,
        "meta_inclination": 74.0408,
        "meta_ra_of_asc_node": 237.1259,
        "meta_arg_of_pericenter": 1.5152,
        "meta_mean_anomaly": 56.2487,
        "meta_ephemeris_type": 0,
        "meta_classification_type": "U",
        "meta_norad_cat_id": 34911,
        "meta_element_set_no": 999,
        "meta_rev_at_epoch": 88645,
        "meta_bstar": 0.00013641579,
        "meta_mean_motion_dot": 6.46e-06,
        "meta_mean_motion_ddot": 0,
        "tle_line1": "1 34911U 93036ADG 25350.73722198  .00000646  00000+0  13642-3 0  9997",
        "tle_line2": "2 34911  74.0408 237.1259 0083778   1.5152  56.2487 14.59378920886450"
      },
      "geometry": {
        "type": "Point",
        "coordinates": [
          -122.78491754125186,
          3.4334134535295058
        ]
      }
    },
    {
      "type": "Feature",
      "properties": {
        "norad_id": 34913,
        "name": "COSMOS 2251 DEB",
        "group": "cosmos-2251-debris",
        "lat": -29.77768510399615,
        "lon": -95.11975622280576,
        "alt_km": 773.2004612137534,
        "timestamp": "2025-12-17T04:57:44.756173+00:00",
        "meta_object_name": "COSMOS 2251 DEB",
        "meta_object_id": "1993-036ADJ",
        "meta_epoch": "2025-12-16T13:10:35.646816",
        "meta_mean_motion": 14.34638708,
        "meta_eccentricity": 0.00204915,
        "meta_inclination": 74.0284,
        "meta_ra_of_asc_node": 275.5168,
        "meta_arg_of_pericenter": 24.3837,
        "meta_mean_anomaly": 149.1171,
        "meta_ephemeris_type": 0,
        "meta_classification_type": "U",
        "meta_norad_cat_id": 34913,
        "meta_element_set_no": 999,
        "meta_rev_at_epoch": 65242,
        "meta_bstar": 4.394543e-05,
        "meta_mean_motion_dot": 9.8e-07,
        "meta_mean_motion_ddot": 0,
        "tle_line1": "1 34913U 93036ADJ 25350.54902369  .00000098  00000+0  43945-4 0  9999",
        "tle_line2": "2 34913  74.0284 275.5168 0020491  24.3837 149.1171 14.34638708652421"
      },
      "geometry": {
        "type": "Point",
        "coordinates": [
          -95.11975622280576,
          -29.77768510399615
        ]
      }
    },
    {
      "type": "Feature",
      "properties": {
        "norad_id": 34918,
        "name": "COSMOS 2251 DEB",
        "group": "cosmos-2251-debris",
        "lat": -2.652790344912282,
        "lon": 125.86331886702557,
        "alt_km": 691.5946694667164,
        "timestamp": "2025-12-17T04:57:44.756182+00:00",
        "meta_object_name": "COSMOS 2251 DEB",
        "meta_object_id": "1993-036ADP",
        "meta_epoch": "2025-12-16T13:53:46.052736",
        "meta_mean_motion": 14.61269295,
        "meta_eccentricity": 0.00334369,
        "meta_inclination": 74.0708,
        "meta_ra_of_asc_node": 306.3024,
        "meta_arg_of_pericenter": 273.1328,
        "meta_mean_anomaly": 208.8551,
        "meta_ephemeris_type": 0,
        "meta_classification_type": "U",
        "meta_norad_cat_id": 34918,
        "meta_element_set_no": 999,
        "meta_rev_at_epoch": 65392,
        "meta_bstar": 0.0014489759,
        "meta_mean_motion_dot": 7.183e-05,
        "meta_mean_motion_ddot": 0,
        "tle_line1": "1 34918U 93036ADP 25350.57900524  .00007183  00000+0  14490-2 0  9991",
        "tle_line2": "2 34918  74.0708 306.3024 0033436 273.1328 208.8551 14.61269295653925"
      },
      "geometry": {
        "type": "Point",
        "coordinates": [
          125.86331886702557,
          -2.652790344912282
        ]
      }
    }
  ]
}